{
  "type": "FeatureCollection",
  "features": [
    {
      "type": "Feature",
      "properties": {
        "norad_id": 30571,
        "name": "FENGYUN 1C DEB",
        "group": "fengyun-1c-debris",
        "lat": 15.80690314386678,
        "lon": -165.4742081890046,
        "alt_km": 853.1875521333086,
        "timestamp": "2025-12-11T18:59:46.350719+00:00",
        "meta_object_name": "FENGYUN 1C DEB",
        "meta_object_id": "1999-025ALM",
        "meta_epoch": "2025-12-11T01:27:25.599744",
        "meta_mean_motion": 14.10692882,
        "meta_eccentricity": 0.00207415,
        "meta_inclination": 98.7314,
        "meta_ra_of_asc_node": 11.3223,
        "meta_arg_of_pericenter": 238.8353,
        "meta_mean_anomaly": 176.0133,
        "meta_ephemeris_type": 0,
        "meta_classification_type": "U",
        "meta_norad_cat_id": 30571,
        "meta_element_set_no": 999,
        "meta_rev_at_epoch": 96863,
        "meta_bstar": 0.00034420324,
        "meta_mean_motion_dot": 5.73e-06,
        "meta_mean_motion_ddot": 0,
        "tle_line1": "1 30571U 99025ALM 25345.06071296  .00000573  00000+0  34420-3 0  9991",
        "tle_line2": "2 30571  98.7314  11.3223 0020741 238.8353 176.0133 14.10692882968632"
      },
      "geometry": {
        "type": "Point",
        "coordinates": [
          -165.4742081890046,
          15.80690314386678
        ]
      }
    },
    {
      "type": "Feature",
      "properties": {
        "norad_id": 30572,
        "name": "FENGYUN 1C DEB",
        "group": "fengyun-1c-debris",
        "lat": 74.05120643064922,
        "lon": -17.264977477976334,
        "alt_km": 867.7064879095542,
        "timestamp": "2025-12-11T18:59:46.350729+00:00",
        "meta_object_name": "FENGYUN 1C DEB",
        "meta_object_id": "1999-025ALN",
        "meta_epoch": "2025-12-11T01:50:59.770752",
        "meta_mean_motion": 14.08919013,
        "meta_eccentricity": 0.00211408,
        "meta_inclination": 98.7723,
        "meta_ra_of_asc_node": 14.7449,
        "meta_arg_of_pericenter": 298.5304,
        "meta_mean_anomaly": 116.3292,
        "meta_ephemeris_type": 0,
        "meta_classification_type": "U",
        "meta_norad_cat_id": 30572,
        "meta_element_set_no": 999,
        "meta_rev_at_epoch": 96738,
        "meta_bstar": 0.00038818862,
        "meta_mean_motion_dot": 6.29e-06,
        "meta_mean_motion_ddot": 0,
        "tle_line1": "1 30572U 99025ALN 25345.07708068  .00000629  00000+0  38819-3 0  9995",
        "tle_line2": "2 30572  98.7723  14.7449 0021140 298.5304 116.3292 14.08919013967386"
      },
      "geometry": {
        "type": "Point",
        "coordinates": [
          -17.264977477976334,
          74.05120643064922
        ]
      }
    },
    {
      "type": "Feature",
      "properties": {
        "norad_id": 30573,
        "name": "FENGYUN 1C DEB",
        "group": "fengyun-1c-debris",
        "lat": -10.03386358390081,
        "lon": 25.145097002468788,
        "alt_km": 831.7214857473036,
        "timestamp": "2025-12-11T18:59:46.350740+00:00",
        "meta_object_name": "FENGYUN 1C DEB",
        "meta_object_id": "1999-025ALP",
        "meta_epoch": "2025-12-11T02:19:19.650144",
        "meta_mean_motion": 14.13819429,
        "meta_eccentricity": 0.00883591,
        "meta_inclination": 99.2268,
        "meta_ra_of_asc_node": 22.7803,
        "meta_arg_of_pericenter": 278.4338,
        "meta_mean_anomaly": 136.368,
        "meta_ephemeris_type": 0,
        "meta_classification_type": "U",
        "meta_norad_cat_id": 30573,
        "meta_element_set_no": 999,
        "meta_rev_at_epoch": 96174,
        "meta_bstar": 0.0025748429,
        "meta_mean_motion_dot": 5.016e-05,
        "meta_mean_motion_ddot": 0,
        "tle_line1": "1 30573U 99025ALP 25345.09675521  .00005016  00000+0  25748-2 0  9996",
        "tle_line2": "2 30573  99.2268  22.7803 0088359 278.4338 136.3680 14.13819429961742"
      },
      "geometry": {
        "type": "Point",
        "coordinates": [
          25.145097002468788,
          -10.03386358390081
        ]
      }
    },
    {
      "type": "Feature",
      "properties": {
        "norad_id": 30574,
        "name": "FENGYUN 1C DEB",
        "group": "fengyun-1c-debris",
        "lat": 46.97698148523614,
        "lon": 139.2859628677604,
        "alt_km": 880.3012329944031,
        "timestamp": "2025-12-11T18:59:46.350750+00:00",
        "meta_object_name": "FENGYUN 1C DEB",
        "meta_object_id": "1999-025ALQ",
        "meta_epoch": "2025-12-09T09:14:54.974400",
        "meta_mean_motion": 13.77498297,
        "meta_eccentricity": 0.02190443,
        "meta_inclination": 99.3025,
        "meta_ra_of_asc_node": 147.0438,
        "meta_arg_of_pericenter": 356.3652,
        "meta_mean_anomaly": 3.5899,
        "meta_ephemeris_type": 0,
        "meta_classification_type": "U",
        "meta_norad_cat_id": 30574,
        "meta_element_set_no": 999,
        "meta_rev_at_epoch": 93722,
        "meta_bstar": 0.0030506009,
        "meta_mean_motion_dot": 3.583e-05,
        "meta_mean_motion_ddot": 0,
        "tle_line1": "1 30574U 99025ALQ 25343.38535850  .00003583  00000+0  30506-2 0  9992",
        "tle_line2": "2 30574  99.3025 147.0438 0219044 356.3652   3.5899 13.77498297937220"
      },
      "geometry": {
        "type": "Point",
        "coordinates": [
          139.2859628677604,
          46.97698148523614
        ]
      }
    },
    {
      "type": "Feature",
      "properties": {
        "norad_id": 30575,
        "name": "FENGYUN 1C DEB",
        "group": "fengyun-1c-debris",
        "lat": -29.680067686543914,
        "lon": 81.92448126061161,
        "alt_km": 764.4934807371037,
        "timestamp": "2025-12-11T18:59:46.350760+00:00",
        "meta_object_name": "FENGYUN 1C DEB",
        "meta_object_id": "1999-025ALR",
        "meta_epoch": "2025-12-11T06:05:46.605696",
        "meta_mean_motion": 14.40048603,
        "meta_eccentricity": 0.00540535,
        "meta_inclination": 99.1695,
        "meta_ra_of_asc_node": 76.0674,
        "meta_arg_of_pericenter": 240.8238,
        "meta_mean_anomaly": 183.6531,
        "meta_ephemeris_type": 0,
        "meta_classification_type": "U",
        "meta_norad_cat_id": 30575,
        "meta_element_set_no": 999,
        "meta_rev_at_epoch": 98196,
        "meta_bstar": 0.0018854737,
        "meta_mean_motion_dot": 6.002e-05,
        "meta_mean_motion_ddot": 0,
        "tle_line1": "1 30575U 99025ALR 25345.25401164  .00006002  00000+0  18855-2 0  9993",
        "tle_line2": "2 30575  99.1695  76.0674 0054053 240.8238 183.6531 14.40048603981965"
      },
      "geometry": {
        "type": "Point",
        "coordinates": [
          81.92448126061161,
          -29.680067686543914
        ]
      }
    },
    {
      "type": "Feature",
      "properties": {
        "norad_id": 30577,
        "name": "FENGYUN 1C DEB",
        "group": "fengyun-1c-debris",
        "lat": 59.169711899859884,
        "lon": -145.26476956506687,
        "alt_km": 869.7314721039993,
        "timestamp": "2025-12-11T18:59:46.350785+00:00",
        "meta_object_name": "FENGYUN 1C DEB",
        "meta_object_id": "1999-025ALT",
        "meta_epoch": "2025-12-10T21:09:06.011712",
        "meta_mean_motion": 14.11138739,
        "meta_eccentricity": 0.0028608,
        "meta_inclination": 98.7707,
        "meta_ra_of_asc_node": 18.8554,
        "meta_arg_of_pericenter": 287.6037,
        "meta_mean_anomaly": 250.824,
        "meta_ephemeris_type": 0,
        "meta_classification_type": "U",
        "meta_norad_cat_id": 30577,
        "meta_element_set_no": 999,
        "meta_rev_at_epoch": 96758,
        "meta_bstar": 0.00066078,
        "meta_mean_motion_dot": 1.151e-05,
        "meta_mean_motion_ddot": 0,
        "tle_line1": "1 30577U 99025ALT 25344.88131958  .00001151  00000+0  66078-3 0  9995",
        "tle_line2": "2 30577  98.7707  18.8554 0028608 287.6037 250.8240 14.11138739967584"
      },
      "geometry": {
        "type": "Point",
        "coordinates": [
          -145.26476956506687,
          59.169711899859884
        ]
      }
    },
    {
      "type": "Feature",
      "properties": {
        "norad_id": 30579,
        "name": "FENGYUN 1C DEB",
        "group": "fengyun-1c-debris",
        "lat": -15.037677392883891,
        "lon": 12.880836793409637,
        "alt_km": 900.370137887242,
        "timestamp": "2025-12-11T18:59:46.350797+00:00",
        "meta_object_name": "FENGYUN 1C DEB",
        "meta_object_id": "1999-025ALV",
        "meta_epoch": "2025-12-10T20:00:01.238688",
        "meta_mean_motion": 14.05246214,
        "meta_eccentricity": 0.00536974,
        "meta_inclination": 98.8069,
        "meta_ra_of_asc_node": 9.5634,
        "meta_arg_of_pericenter": 108.8377,
        "meta_mean_anomaly": 72.0384,
        "meta_ephemeris_type": 0,
        "meta_classification_type": "U",
        "meta_norad_cat_id": 30579,
        "meta_element_set_no": 999,
        "meta_rev_at_epoch": 96430,
        "meta_bstar": 0.0005649103,
        "meta_mean_motion_dot": 8.83e-06,
        "meta_mean_motion_ddot": 0,
        "tle_line1": "1 30579U 99025ALV 25344.83334767  .00000883  00000+0  56491-3 0  9994",
        "tle_line2": "2 30579  98.8069   9.5634 0053697 108.8377  72.0384 14.05246214964302"
      },
      "geometry": {
        "type": "Point",
        "coordinates": [
          12.880836793409637,
          -15.037677392883891
        ]
      }
    }
  ]
}